[{"OBJECT_NAME":"METEOSAT-11 (MSG-4)","OBJECT_ID":"2015-034A","EPOCH":"2026-03-03T15:49:58.176768","MEAN_MOTION":1.00265866,"ECCENTRICITY":0.0001803,"INCLINATION":2.9356,"RA_OF_ASC_NODE":71.6854,"ARG_OF_PERICENTER":270.6542,"MEAN_ANOMALY":65.9819,"EPHEMERIS_TYPE":0,"CLASSIFICATION_TYPE":"U","NORAD_CAT_ID":40732,"ELEMENT_SET_NO":999,"REV_AT_EPOCH":615,"BSTAR":0,"MEAN_MOTION_DOT":4.9e-7,"MEAN_MOTION_DDOT":0},{"OBJECT_NAME":"ELEKTRO-L 2","OBJECT_ID":"2015-074A","EPOCH":"2026-03-03T20:51:04.605984","MEAN_MOTION":1.00270829,"ECCENTRICITY":0.0003468,"INCLINATION":6.4296,"RA_OF_ASC_NODE":71.8188,"ARG_OF_PERICENTER":237.1165,"MEAN_ANOMALY":150.951,"EPHEMERIS_TYPE":0,"CLASSIFICATION_TYPE":"U","NORAD_CAT_ID":41105,"ELEMENT_SET_NO":999,"REV_AT_EPOCH":3745,"BSTAR":0,"MEAN_MOTION_DOT":-1.28e-6,"MEAN_MOTION_DDOT":0},{"OBJECT_NAME":"INSAT-3DR","OBJECT_ID":"2016-054A","EPOCH":"2026-03-03T18:25:25.774752","MEAN_MOTION":1.0027234,"ECCENTRICITY":0.0013302,"INCLINATION":0.0454,"RA_OF_ASC_NODE":96.9374,"ARG_OF_PERICENTER":184.7888,"MEAN_ANOMALY":230.1313,"EPHEMERIS_TYPE":0,"CLASSIFICATION_TYPE":"U","NORAD_CAT_ID":41752,"ELEMENT_SET_NO":999,"REV_AT_EPOCH":3476,"BSTAR":0,"MEAN_MOTION_DOT":-9.1e-7,"MEAN_MOTION_DDOT":0},{"OBJECT_NAME":"HIMAWARI-9","OBJECT_ID":"2016-064A","EPOCH":"2026-03-03T17:16:38.719776","MEAN_MOTION":1.00272468,"ECCENTRICITY":0.0001154,"INCLINATION":0.0152,"RA_OF_ASC_NODE":183.4454,"ARG_OF_PERICENTER":181.7639,"MEAN_ANOMALY":196.202,"EPHEMERIS_TYPE":0,"CLASSIFICATION_TYPE":"U","NORAD_CAT_ID":41836,"ELEMENT_SET_NO":999,"REV_AT_EPOCH":3415,"BSTAR":0,"MEAN_MOTION_DOT":-2.89e-6,"MEAN_MOTION_DDOT":0},{"OBJECT_NAME":"GOES 16","OBJECT_ID":"2016-071A","EPOCH":"2026-03-03T13:34:41.141280","MEAN_MOTION":1.00271662,"ECCENTRICITY":0.0002571,"INCLINATION":0.1452,"RA_OF_ASC_NODE":90.1946,"ARG_OF_PERICENTER":216.7975,"MEAN_ANOMALY":313.3003,"EPHEMERIS_TYPE":0,"CLASSIFICATION_TYPE":"U","NORAD_CAT_ID":41866,"ELEMENT_SET_NO":999,"REV_AT_EPOCH":3404,"BSTAR":0,"MEAN_MOTION_DOT":-1.05e-6,"MEAN_MOTION_DDOT":0},{"OBJECT_NAME":"FENGYUN 4A","OBJECT_ID":"2016-077A","EPOCH":"2026-03-03T19:47:55.659264","MEAN_MOTION":1.00279555,"ECCENTRICITY":0.0007492,"INCLINATION":2.0544,"RA_OF_ASC_NODE":81.419,"ARG_OF_PERICENTER":135.908,"MEAN_ANOMALY":4.7833,"EPHEMERIS_TYPE":0,"CLASSIFICATION_TYPE":"U","NORAD_CAT_ID":41882,"ELEMENT_SET_NO":999,"REV_AT_EPOCH":3387,"BSTAR":0,"MEAN_MOTION_DOT":-3.7e-6,"MEAN_MOTION_DDOT":0},{"OBJECT_NAME":"CYGFM05","OBJECT_ID":"2016-078A","EPOCH":"2026-03-03T18:46:53.836320","MEAN_MOTION":15.51820823,"ECCENTRICITY":0.0006966,"INCLINATION":34.9566,"RA_OF_ASC_NODE":236.1268,"ARG_OF_PERICENTER":234.9171,"MEAN_ANOMALY":125.0899,"EPHEMERIS_TYPE":0,"CLASSIFICATION_TYPE":"U","NORAD_CAT_ID":41884,"ELEMENT_SET_NO":999,"REV_AT_EPOCH":51234,"BSTAR":0.00049757,"MEAN_MOTION_DOT":0.00030798,"MEAN_MOTION_DDOT":0},{"OBJECT_NAME":"CYGFM04","OBJECT_ID":"2016-078B","EPOCH":"2026-03-03T18:44:00.493728","MEAN_MOTION":15.55205696,"ECCENTRICITY":0.0006128,"INCLINATION":34.9325,"RA_OF_ASC_NODE":208.4221,"ARG_OF_PERICENTER":268.4132,"MEAN_ANOMALY":91.589,"EPHEMERIS_TYPE":0,"CLASSIFICATION_TYPE":"U","NORAD_CAT_ID":41885,"ELEMENT_SET_NO":999,"REV_AT_EPOCH":51254,"BSTAR":0.00051484,"MEAN_MOTION_DOT":0.00036077,"MEAN_MOTION_DDOT":0},{"OBJECT_NAME":"CYGFM02","OBJECT_ID":"2016-078C","EPOCH":"2026-03-03T18:06:21.093984","MEAN_MOTION":15.57324186,"ECCENTRICITY":0.0007112,"INCLINATION":34.9412,"RA_OF_ASC_NODE":205.6235,"ARG_OF_PERICENTER":269.5221,"MEAN_ANOMALY":90.4689,"EPHEMERIS_TYPE":0,"CLASSIFICATION_TYPE":"U","NORAD_CAT_ID":41886,"ELEMENT_SET_NO":999,"REV_AT_EPOCH":51268,"BSTAR":0.0011032,"MEAN_MOTION_DOT":0.00084247,"MEAN_MOTION_DDOT":0},{"OBJECT_NAME":"CYGFM01","OBJECT_ID":"2016-078D","EPOCH":"2026-03-03T19:28:26.930784","MEAN_MOTION":15.52259596,"ECCENTRICITY":0.0006622,"INCLINATION":34.9394,"RA_OF_ASC_NODE":237.756,"ARG_OF_PERICENTER":227.0113,"MEAN_ANOMALY":133.0055,"EPHEMERIS_TYPE":0,"CLASSIFICATION_TYPE":"U","NORAD_CAT_ID":41887,"ELEMENT_SET_NO":999,"REV_AT_EPOCH":51229,"BSTAR":0.00051433,"MEAN_MOTION_DOT":0.0003235,"MEAN_MOTION_DDOT":0},{"OBJECT_NAME":"CYGFM08","OBJECT_ID":"2016-078E","EPOCH":"2026-03-03T17:35:21.219936","MEAN_MOTION":15.5373048,"ECCENTRICITY":0.0008144,"INCLINATION":34.943,"RA_OF_ASC_NODE":220.212,"ARG_OF_PERICENTER":251.3542,"MEAN_ANOMALY":108.6297,"EPHEMERIS_TYPE":0,"CLASSIFICATION_TYPE":"U","NORAD_CAT_ID":41888,"ELEMENT_SET_NO":999,"REV_AT_EPOCH":51252,"BSTAR":0.00052116,"MEAN_MOTION_DOT":0.00034607,"MEAN_MOTION_DDOT":0},{"OBJECT_NAME":"CYGFM07","OBJECT_ID":"2016-078G","EPOCH":"2026-03-03T16:51:01.619712","MEAN_MOTION":15.54418491,"ECCENTRICITY":0.0006666,"INCLINATION":34.945,"RA_OF_ASC_NODE":208.9003,"ARG_OF_PERICENTER":271.1192,"MEAN_ANOMALY":88.8768,"EPHEMERIS_TYPE":0,"CLASSIFICATION_TYPE":"U","NORAD_CAT_ID":41890,"ELEMENT_SET_NO":999,"REV_AT_EPOCH":51254,"BSTAR":0.00052602,"MEAN_MOTION_DOT":0.00035811,"MEAN_MOTION_DDOT":0},{"OBJECT_NAME":"CYGFM03","OBJECT_ID":"2016-078H","EPOCH":"2026-03-03T17:41:54.839328","MEAN_MOTION":15.54436642,"ECCENTRICITY":0.0005941,"INCLINATION":34.9404,"RA_OF_ASC_NODE":210.6464,"ARG_OF_PERICENTER":256.6776,"MEAN_ANOMALY":103.3285,"EPHEMERIS_TYPE":0,"CLASSIFICATION_TYPE":"U","NORAD_CAT_ID":41891,"ELEMENT_SET_NO":999,"REV_AT_EPOCH":51252,"BSTAR":0.00051041,"MEAN_MOTION_DOT":0.00034759,"MEAN_MOTION_DDOT":0},{"OBJECT_NAME":"FENGYUN 3D","OBJECT_ID":"2017-072A","EPOCH":"2026-03-03T20:34:14.868192","MEAN_MOTION":14.19711597,"ECCENTRICITY":0.000185,"INCLINATION":99.0014,"RA_OF_ASC_NODE":35.4371,"ARG_OF_PERICENTER":25.4227,"MEAN_ANOMALY":334.7039,"EPHEMERIS_TYPE":0,"CLASSIFICATION_TYPE":"U","NORAD_CAT_ID":43010,"ELEMENT_SET_NO":999,"REV_AT_EPOCH":43004,"BSTAR":-0.00010025,"MEAN_MOTION_DOT":-2.58e-6,"MEAN_MOTION_DDOT":0},{"OBJECT_NAME":"NOAA 20 (JPSS-1)","OBJECT_ID":"2017-073A","EPOCH":"2026-03-03T20:05:29.808384","MEAN_MOTION":14.19534278,"ECCENTRICITY":9.31e-5,"INCLINATION":98.7686,"RA_OF_ASC_NODE":3.2827,"ARG_OF_PERICENTER":145.493,"MEAN_ANOMALY":214.6307,"EPHEMERIS_TYPE":0,"CLASSIFICATION_TYPE":"U","NORAD_CAT_ID":43013,"ELEMENT_SET_NO":999,"REV_AT_EPOCH":42952,"BSTAR":6.8042e-5,"MEAN_MOTION_DOT":9.9e-7,"MEAN_MOTION_DDOT":0},{"OBJECT_NAME":"GOES 17","OBJECT_ID":"2018-022A","EPOCH":"2026-03-03T15:21:45.879840","MEAN_MOTION":1.0027041,"ECCENTRICITY":0.0002289,"INCLINATION":0.6662,"RA_OF_ASC_NODE":87.5708,"ARG_OF_PERICENTER":220.2416,"MEAN_ANOMALY":354.5211,"EPHEMERIS_TYPE":0,"CLASSIFICATION_TYPE":"U","NORAD_CAT_ID":43226,"ELEMENT_SET_NO":999,"REV_AT_EPOCH":2936,"BSTAR":0,"MEAN_MOTION_DOT":-1.96e-6,"MEAN_MOTION_DDOT":0},{"OBJECT_NAME":"FENGYUN 2H","OBJECT_ID":"2018-050A","EPOCH":"2026-03-03T19:35:14.088192","MEAN_MOTION":1.00272657,"ECCENTRICITY":0.000195,"INCLINATION":2.7591,"RA_OF_ASC_NODE":80.362,"ARG_OF_PERICENTER":174.0578,"MEAN_ANOMALY":280.0246,"EPHEMERIS_TYPE":0,"CLASSIFICATION_TYPE":"U","NORAD_CAT_ID":43491,"ELEMENT_SET_NO":999,"REV_AT_EPOCH":2838,"BSTAR":0,"MEAN_MOTION_DOT":-1.39e-6,"MEAN_MOTION_DDOT":0}]
